{
  "type": "FeatureCollection",
  "features": [
    {
      "type": "Feature",
      "properties": {
        "norad_id": 31226,
        "name": "FENGYUN 1C DEB",
        "group": "fengyun-1c-debris",
        "lat": 60.39850389512759,
        "lon": -31.32161258610113,
        "alt_km": 869.4918650536538,
        "timestamp": "2025-12-09T16:56:36.855918+00:00",
        "meta_object_name": "FENGYUN 1C DEB",
        "meta_object_id": "1999-025BLG",
        "meta_epoch": "2025-12-06T17:57:16.149312",
        "meta_mean_motion": 14.2667576,
        "meta_eccentricity": 0.01264653,
        "meta_inclination": 98.3501,
        "meta_ra_of_asc_node": 340.838,
        "meta_arg_of_pericenter": 213.6965,
        "meta_mean_anomaly": 145.613,
        "meta_ephemeris_type": 0,
        "meta_classification_type": "U",
        "meta_norad_cat_id": 31226,
        "meta_element_set_no": 999,
        "meta_rev_at_epoch": 61968,
        "meta_bstar": 0.00066349543,
        "meta_mean_motion_dot": 1.704e-05,
        "meta_mean_motion_ddot": 0,
        "tle_line1": "1 31226U 99025BLG 25340.74810358  .00001704  00000+0  66350-3 0  9993",
        "tle_line2": "2 31226  98.3501 340.8380 0126465 213.6965 145.6130 14.26675760619688"
      },
      "geometry": {
        "type": "Point",
        "coordinates": [
          -31.32161258610113,
          60.39850389512759
        ]
      }
    },
    {
      "type": "Feature",
      "properties": {
        "norad_id": 31228,
        "name": "FENGYUN 1C DEB",
        "group": "fengyun-1c-debris",
        "lat": -56.271201348471585,
        "lon": -91.04377521891158,
        "alt_km": 825.6785391426356,
        "timestamp": "2025-12-09T16:56:36.855928+00:00",
        "meta_object_name": "FENGYUN 1C DEB",
        "meta_object_id": "1999-025BLJ",
        "meta_epoch": "2025-12-09T07:45:46.363392",
        "meta_mean_motion": 14.36903624,
        "meta_eccentricity": 0.0079184,
        "meta_inclination": 98.8687,
        "meta_ra_of_asc_node": 255.0376,
        "meta_arg_of_pericenter": 95.9356,
        "meta_mean_anomaly": 29.5961,
        "meta_ephemeris_type": 0,
        "meta_classification_type": "U",
        "meta_norad_cat_id": 31228,
        "meta_element_set_no": 999,
        "meta_rev_at_epoch": 97520,
        "meta_bstar": 0.00082393,
        "meta_mean_motion_dot": 2.481e-05,
        "meta_mean_motion_ddot": 0,
        "tle_line1": "1 31228U 99025BLJ 25343.32345328  .00002481  00000+0  82393-3 0  9990",
        "tle_line2": "2 31228  98.8687 255.0376 0079184  95.9356  29.5961 14.36903624975201"
      },
      "geometry": {
        "type": "Point",
        "coordinates": [
          -91.04377521891158,
          -56.271201348471585
        ]
      }
    },
    {
      "type": "Feature",
      "properties": {
        "norad_id": 31229,
        "name": "FENGYUN 1C DEB",
        "group": "fengyun-1c-debris",
        "lat": -79.39934126136738,
        "lon": -177.52346541715886,
        "alt_km": 798.0878344293851,
        "timestamp": "2025-12-09T16:56:36.855939+00:00",
        "meta_object_name": "FENGYUN 1C DEB",
        "meta_object_id": "1999-025BLK",
        "meta_epoch": "2025-12-09T03:52:40.376352",
        "meta_mean_motion": 14.21783414,
        "meta_eccentricity": 0.00527704,
        "meta_inclination": 98.8673,
        "meta_ra_of_asc_node": 58.4536,
        "meta_arg_of_pericenter": 307.2168,
        "meta_mean_anomaly": 52.42,
        "meta_ephemeris_type": 0,
        "meta_classification_type": "U",
        "meta_norad_cat_id": 31229,
        "meta_element_set_no": 999,
        "meta_rev_at_epoch": 96033,
        "meta_bstar": 0.0017086204,
        "meta_mean_motion_dot": 3.769e-05,
        "meta_mean_motion_ddot": 0,
        "tle_line1": "1 31229U 99025BLK 25343.16157843  .00003769  00000+0  17086-2 0  9992",
        "tle_line2": "2 31229  98.8673  58.4536 0052770 307.2168  52.4200 14.21783414960338"
      },
      "geometry": {
        "type": "Point",
        "coordinates": [
          -177.52346541715886,
          -79.39934126136738
        ]
      }
    },
    {
      "type": "Feature",
      "properties": {
        "norad_id": 31231,
        "name": "FENGYUN 1C DEB",
        "group": "fengyun-1c-debris",
        "lat": 51.54068886113403,
        "lon": 131.23011544797185,
        "alt_km": 591.9747571814087,
        "timestamp": "2025-12-09T16:56:36.855949+00:00",
        "meta_object_name": "FENGYUN 1C DEB",
        "meta_object_id": "1999-025BLM",
        "meta_epoch": "2025-12-07T04:28:47.589888",
        "meta_mean_motion": 14.75193183,
        "meta_eccentricity": 0.01468739,
        "meta_inclination": 98.8605,
        "meta_ra_of_asc_node": 139.7987,
        "meta_arg_of_pericenter": 123.9175,
        "meta_mean_anomaly": 237.6099,
        "meta_ephemeris_type": 0,
        "meta_classification_type": "U",
        "meta_norad_cat_id": 31231,
        "meta_element_set_no": 999,
        "meta_rev_at_epoch": 62939,
        "meta_bstar": 0.0055087948,
        "meta_mean_motion_dot": 0.00044548,
        "meta_mean_motion_ddot": 0,
        "tle_line1": "1 31231U 99025BLM 25341.18666192  .00044548  00000+0  55088-2 0  9991",
        "tle_line2": "2 31231  98.8605 139.7987 0146873 123.9175 237.6099 14.75193183629396"
      },
      "geometry": {
        "type": "Point",
        "coordinates": [
          131.23011544797185,
          51.54068886113403
        ]
      }
    },
    {
      "type": "Feature",
      "properties": {
        "norad_id": 31234,
        "name": "FENGYUN 1C DEB",
        "group": "fengyun-1c-debris",
        "lat": 20.447821060370238,
        "lon": -25.513127433134215,
        "alt_km": 909.3948425632525,
        "timestamp": "2025-12-09T16:56:36.855959+00:00",
        "meta_object_name": "FENGYUN 1C DEB",
        "meta_object_id": "1999-025BLQ",
        "meta_epoch": "2025-12-08T16:58:03.836640",
        "meta_mean_motion": 14.08010887,
        "meta_eccentricity": 0.00729408,
        "meta_inclination": 98.7836,
        "meta_ra_of_asc_node": 336.8196,
        "meta_arg_of_pericenter": 238.3597,
        "meta_mean_anomaly": 121.0443,
        "meta_ephemeris_type": 0,
        "meta_classification_type": "U",
        "meta_norad_cat_id": 31234,
        "meta_element_set_no": 999,
        "meta_rev_at_epoch": 72663,
        "meta_bstar": 0.00057434574,
        "meta_mean_motion_dot": 9.57e-06,
        "meta_mean_motion_ddot": 0,
        "tle_line1": "1 31234U 99025BLQ 25342.70698885  .00000957  00000+0  57435-3 0  9992",
        "tle_line2": "2 31234  98.7836 336.8196 0072940 238.3597 121.0443 14.08010887726637"
      },
      "geometry": {
        "type": "Point",
        "coordinates": [
          -25.513127433134215,
          20.447821060370238
        ]
      }
    },
    {
      "type": "Feature",
      "properties": {
        "norad_id": 31235,
        "name": "FENGYUN 1C DEB",
        "group": "fengyun-1c-debris",
        "lat": -66.16945325957518,
        "lon": -67.6089131815302,
        "alt_km": 940.5618475218662,
        "timestamp": "2025-12-09T16:56:36.855969+00:00",
        "meta_object_name": "FENGYUN 1C DEB",
        "meta_object_id": "1999-025BLR",
        "meta_epoch": "2025-12-08T16:04:46.758432",
        "meta_mean_motion": 14.18534833,
        "meta_eccentricity": 0.0179649,
        "meta_inclination": 98.4705,
        "meta_ra_of_asc_node": 131.1188,
        "meta_arg_of_pericenter": 33.9725,
        "meta_mean_anomaly": 327.2803,
        "meta_ephemeris_type": 0,
        "meta_classification_type": "U",
        "meta_norad_cat_id": 31235,
        "meta_element_set_no": 999,
        "meta_rev_at_epoch": 63109,
        "meta_bstar": 0.0037243,
        "meta_mean_motion_dot": 9.01e-05,
        "meta_mean_motion_ddot": 0,
        "tle_line1": "1 31235U 99025BLR 25342.66998563  .00009010  00000+0  37243-2 0  9997",
        "tle_line2": "2 31235  98.4705 131.1188 0179649  33.9725 327.2803 14.18534833631091"
      },
      "geometry": {
        "type": "Point",
        "coordinates": [
          -67.6089131815302,
          -66.16945325957518
        ]
      }
    },
    {
      "type": "Feature",
      "properties": {
        "norad_id": 31236,
        "name": "FENGYUN 1C DEB",
        "group": "fengyun-1c-debris",
        "lat": 57.13789233937516,
        "lon": 132.64770852872647,
        "alt_km": 841.3998761569683,
        "timestamp": "2025-12-09T16:56:36.855980+00:00",
        "meta_object_name": "FENGYUN 1C DEB",
        "meta_object_id": "1999-025BLS",
        "meta_epoch": "2025-12-08T03:59:52.265760",
        "meta_mean_motion": 13.85721801,
        "meta_eccentricity": 0.03144927,
        "meta_inclination": 98.5451,
        "meta_ra_of_asc_node": 297.7823,
        "meta_arg_of_pericenter": 59.175,
        "meta_mean_anomaly": 303.9956,
        "meta_ephemeris_type": 0,
        "meta_classification_type": "U",
        "meta_norad_cat_id": 31236,
        "meta_element_set_no": 999,
        "meta_rev_at_epoch": 60961,
        "meta_bstar": 0.006018133,
        "meta_mean_motion_dot": 0.00010125,
        "meta_mean_motion_ddot": 0,
        "tle_line1": "1 31236U 99025BLS 25342.16657715  .00010125  00000+0  60181-2 0  9990",
        "tle_line2": "2 31236  98.5451 297.7823 0314492  59.1750 303.9956 13.85721801609610"
      },
      "geometry": {
        "type": "Point",
        "coordinates": [
          132.64770852872647,
          57.13789233937516
        ]
      }
    }
  ]
}